ARIANE 5 R/B            
1 28499U 04049H   25323.40587254  .00001067  00000+0  12473-3 0  9992
2 28499  98.2518 122.8534 0084441 349.3516  10.5907 14.84941608129429
CZ-2D R/B               
1 28738U 05024B   25323.58094975  .00022718  00000+0  38253-3 0  9994
2 28738  97.3647 330.4478 0008112  72.6094 287.6044 15.51682692122668
ALOS (DAICHI)           
1 28931U 06002A   25323.61145943  .00001816  00000+0  31539-3 0  9998
2 28931  98.1054 275.2680 0000798  62.0003 298.1284 14.69384314 57310
H-2A R/B                
1 28932U 06002B   25323.65673189  .00010052  00000+0  53865-3 0  9999
2 28932  98.2306  96.5344 0054532 255.3315 104.1865 15.13932375 77770
RESURS-DK 1             
1 29228U 06021A   25323.54424042  .00002426  00000+0  14721-3 0  9993
2 29228  69.9308 161.7736 0007158 278.5206  81.5149 15.11972549 70876
CZ-4B R/B               
1 29507U 06046C   25323.39869311  .00005777  00000+0  30423-3 0  9994
2 29507  97.5771   3.6020 0032795 290.4897  69.2815 15.15547006 43335
CZ-2C R/B               
1 31114U 07010B   25323.61015781  .00000174  00000+0  99240-4 0  9991
2 31114  98.3968  77.4263 0057953 253.9266 105.5525 14.20195919964098
COSMO-SKYMED 1          
1 31598U 07023A   25323.63993427  .00004545  00000+0  41538-3 0  9997
2 31598  97.8838 148.8913 0001027  82.9635 277.1703 14.95526712998441
COSMOS 2428             
1 31792U 07029A   25323.58743152 -.00000178  00000+0 -69848-4 0  9996
2 31792  70.9370  74.4866 0002446  62.9217 297.2154 14.12887652948542
SL-16 R/B               
1 31793U 07029B   25323.64083264  .00000241  00000+0  14994-3 0  9995
2 31793  70.9778  43.7115 0002218 262.8414 247.3151 14.14814931949803
KORONAS-FOTON           
1 33504U 09003A   25323.63479698  .00011050  00000+0  27107-3 0  9990
2 33504  82.4334  30.0304 0011556 186.1906 173.9199 15.40487068928786
CZ-2C R/B               
1 37731U 11030B   25323.49447281  .00002069  00000+0  26901-3 0  9997
2 37731  97.8373 278.1223 0052839 350.7693 122.7690 14.80785595773786
