CCSDS_OMM_VERS = 2.0
CREATION_DATE  = 
ORIGINATOR     = 

OBJECT_NAME    = ARIANE 5 R/B
OBJECT_ID      = 2004-049H
CENTER_NAME    = EARTH
REF_FRAME      = TEME
TIME_SYSTEM    = UTC
MEAN_ELEMENT_THEORY = SGP/SGP4

EPOCH          = 2025-11-19T09:44:27.387456
MEAN_MOTION    = 14.84941608
ECCENTRICITY   = .00844419
INCLINATION    = 98.2518
RA_OF_ASC_NODE = 122.8534
ARG_OF_PERICENTER = 349.3516
MEAN_ANOMALY   = 10.5907

EPHEMERIS_TYPE = 0
CLASSIFICATION_TYPE = U
NORAD_CAT_ID   = 28499
ELEMENT_SET_NO = 999
REV_AT_EPOCH   = 12942
BSTAR          = .12473345E-3
MEAN_MOTION_DOT = .1067E-4
MEAN_MOTION_DDOT = 0

CCSDS_OMM_VERS = 2.0
CREATION_DATE  = 
ORIGINATOR     = 

OBJECT_NAME    = CZ-2D R/B
OBJECT_ID      = 2005-024B
CENTER_NAME    = EARTH
REF_FRAME      = TEME
TIME_SYSTEM    = UTC
MEAN_ELEMENT_THEORY = SGP/SGP4

EPOCH          = 2025-11-19T13:56:34.058400
MEAN_MOTION    = 15.51682692
ECCENTRICITY   = .00081125
INCLINATION    = 97.3647
RA_OF_ASC_NODE = 330.4478
ARG_OF_PERICENTER = 72.6094
MEAN_ANOMALY   = 287.6044

EPHEMERIS_TYPE = 0
CLASSIFICATION_TYPE = U
NORAD_CAT_ID   = 28738
ELEMENT_SET_NO = 999
REV_AT_EPOCH   = 12266
BSTAR          = .38253209E-3
MEAN_MOTION_DOT = .22718E-3
MEAN_MOTION_DDOT = 0

CCSDS_OMM_VERS = 2.0
CREATION_DATE  = 
ORIGINATOR     = 

OBJECT_NAME    = ALOS (DAICHI)
OBJECT_ID      = 2006-002A
CENTER_NAME    = EARTH
REF_FRAME      = TEME
TIME_SYSTEM    = UTC
MEAN_ELEMENT_THEORY = SGP/SGP4

EPOCH          = 2025-11-19T14:40:30.094752
MEAN_MOTION    = 14.69384314
ECCENTRICITY   = .00007984
INCLINATION    = 98.1054
RA_OF_ASC_NODE = 275.2680
ARG_OF_PERICENTER = 62.0003
MEAN_ANOMALY   = 298.1284

EPHEMERIS_TYPE = 0
CLASSIFICATION_TYPE = U
NORAD_CAT_ID   = 28931
ELEMENT_SET_NO = 999
REV_AT_EPOCH   = 5731
BSTAR          = .31538789E-3
MEAN_MOTION_DOT = .1816E-4
MEAN_MOTION_DDOT = 0

CCSDS_OMM_VERS = 2.0
CREATION_DATE  = 
ORIGINATOR     = 

OBJECT_NAME    = H-2A R/B
OBJECT_ID      = 2006-002B
CENTER_NAME    = EARTH
REF_FRAME      = TEME
TIME_SYSTEM    = UTC
MEAN_ELEMENT_THEORY = SGP/SGP4

EPOCH          = 2025-11-19T15:45:41.635296
MEAN_MOTION    = 15.13932375
ECCENTRICITY   = .00545327
INCLINATION    = 98.2306
RA_OF_ASC_NODE = 96.5344
ARG_OF_PERICENTER = 255.3315
MEAN_ANOMALY   = 104.1865

EPHEMERIS_TYPE = 0
CLASSIFICATION_TYPE = U
NORAD_CAT_ID   = 28932
ELEMENT_SET_NO = 999
REV_AT_EPOCH   = 7777
BSTAR          = .53865252E-3
MEAN_MOTION_DOT = .10052E-3
MEAN_MOTION_DDOT = 0

CCSDS_OMM_VERS = 2.0
CREATION_DATE  = 
ORIGINATOR     = 

OBJECT_NAME    = RESURS-DK 1
OBJECT_ID      = 2006-021A
CENTER_NAME    = EARTH
REF_FRAME      = TEME
TIME_SYSTEM    = UTC
MEAN_ELEMENT_THEORY = SGP/SGP4

EPOCH          = 2025-11-19T13:03:42.372288
MEAN_MOTION    = 15.11972549
ECCENTRICITY   = .00071585
INCLINATION    = 69.9308
RA_OF_ASC_NODE = 161.7736
ARG_OF_PERICENTER = 278.5206
MEAN_ANOMALY   = 81.5149

EPHEMERIS_TYPE = 0
CLASSIFICATION_TYPE = U
NORAD_CAT_ID   = 29228
ELEMENT_SET_NO = 999
REV_AT_EPOCH   = 7087
BSTAR          = .14721165E-3
MEAN_MOTION_DOT = .2426E-4
MEAN_MOTION_DDOT = 0

CCSDS_OMM_VERS = 2.0
CREATION_DATE  = 
ORIGINATOR     = 

OBJECT_NAME    = CZ-4B R/B
OBJECT_ID      = 2006-046C
CENTER_NAME    = EARTH
REF_FRAME      = TEME
TIME_SYSTEM    = UTC
MEAN_ELEMENT_THEORY = SGP/SGP4

EPOCH          = 2025-11-19T09:34:07.084704
MEAN_MOTION    = 15.15547006
ECCENTRICITY   = .00327958
INCLINATION    = 97.5771
RA_OF_ASC_NODE = 3.6020
ARG_OF_PERICENTER = 290.4897
MEAN_ANOMALY   = 69.2815

EPHEMERIS_TYPE = 0
CLASSIFICATION_TYPE = U
NORAD_CAT_ID   = 29507
ELEMENT_SET_NO = 999
REV_AT_EPOCH   = 4333
BSTAR          = .30422692E-3
MEAN_MOTION_DOT = .5777E-4
MEAN_MOTION_DDOT = 0

CCSDS_OMM_VERS = 2.0
CREATION_DATE  = 
ORIGINATOR     = 

OBJECT_NAME    = CZ-2C R/B
OBJECT_ID      = 2007-010B
CENTER_NAME    = EARTH
REF_FRAME      = TEME
TIME_SYSTEM    = UTC
MEAN_ELEMENT_THEORY = SGP/SGP4

EPOCH          = 2025-11-19T14:38:37.634784
MEAN_MOTION    = 14.20195919
ECCENTRICITY   = .00579533
INCLINATION    = 98.3968
RA_OF_ASC_NODE = 77.4263
ARG_OF_PERICENTER = 253.9266
MEAN_ANOMALY   = 105.5525

EPHEMERIS_TYPE = 0
CLASSIFICATION_TYPE = U
NORAD_CAT_ID   = 31114
ELEMENT_SET_NO = 999
REV_AT_EPOCH   = 96409
BSTAR          = .99240397E-4
MEAN_MOTION_DOT = .174E-5
MEAN_MOTION_DDOT = 0

CCSDS_OMM_VERS = 2.0
CREATION_DATE  = 
ORIGINATOR     = 

OBJECT_NAME    = COSMO-SKYMED 1
OBJECT_ID      = 2007-023A
CENTER_NAME    = EARTH
REF_FRAME      = TEME
TIME_SYSTEM    = UTC
MEAN_ELEMENT_THEORY = SGP/SGP4

EPOCH          = 2025-11-19T15:21:30.320928
MEAN_MOTION    = 14.95526712
ECCENTRICITY   = .00010277
INCLINATION    = 97.8838
RA_OF_ASC_NODE = 148.8913
ARG_OF_PERICENTER = 82.9635
MEAN_ANOMALY   = 277.1703

EPHEMERIS_TYPE = 0
CLASSIFICATION_TYPE = U
NORAD_CAT_ID   = 31598
ELEMENT_SET_NO = 999
REV_AT_EPOCH   = 99844
BSTAR          = .41538281E-3
MEAN_MOTION_DOT = .4545E-4
MEAN_MOTION_DDOT = 0

CCSDS_OMM_VERS = 2.0
CREATION_DATE  = 
ORIGINATOR     = 

OBJECT_NAME    = COSMOS 2428
OBJECT_ID      = 2007-029A
CENTER_NAME    = EARTH
REF_FRAME      = TEME
TIME_SYSTEM    = UTC
MEAN_ELEMENT_THEORY = SGP/SGP4

EPOCH          = 2025-11-19T14:05:54.083328
MEAN_MOTION    = 14.12887652
ECCENTRICITY   = .00024468
INCLINATION    = 70.9370
RA_OF_ASC_NODE = 74.4866
ARG_OF_PERICENTER = 62.9217
MEAN_ANOMALY   = 297.2154

EPHEMERIS_TYPE = 0
CLASSIFICATION_TYPE = U
NORAD_CAT_ID   = 31792
ELEMENT_SET_NO = 999
REV_AT_EPOCH   = 94854
BSTAR          = -.69847882E-4
MEAN_MOTION_DOT = -.178E-5
MEAN_MOTION_DDOT = 0

CCSDS_OMM_VERS = 2.0
CREATION_DATE  = 
ORIGINATOR     = 

OBJECT_NAME    = SL-16 R/B
OBJECT_ID      = 2007-029B
CENTER_NAME    = EARTH
REF_FRAME      = TEME
TIME_SYSTEM    = UTC
MEAN_ELEMENT_THEORY = SGP/SGP4

EPOCH          = 2025-11-19T15:22:47.940096
MEAN_MOTION    = 14.14814931
ECCENTRICITY   = .00022183
INCLINATION    = 70.9778
RA_OF_ASC_NODE = 43.7115
ARG_OF_PERICENTER = 262.8414
MEAN_ANOMALY   = 247.3151

EPHEMERIS_TYPE = 0
CLASSIFICATION_TYPE = U
NORAD_CAT_ID   = 31793
ELEMENT_SET_NO = 999
REV_AT_EPOCH   = 94980
BSTAR          = .14993834E-3
MEAN_MOTION_DOT = .241E-5
MEAN_MOTION_DDOT = 0

CCSDS_OMM_VERS = 2.0
CREATION_DATE  = 
ORIGINATOR     = 

OBJECT_NAME    = KORONAS-FOTON
OBJECT_ID      = 2009-003A
CENTER_NAME    = EARTH
REF_FRAME      = TEME
TIME_SYSTEM    = UTC
MEAN_ELEMENT_THEORY = SGP/SGP4

EPOCH          = 2025-11-19T15:14:06.459072
MEAN_MOTION    = 15.40487068
ECCENTRICITY   = .00115561
INCLINATION    = 82.4334
RA_OF_ASC_NODE = 30.0304
ARG_OF_PERICENTER = 186.1906
MEAN_ANOMALY   = 173.9199

EPHEMERIS_TYPE = 0
CLASSIFICATION_TYPE = U
NORAD_CAT_ID   = 33504
ELEMENT_SET_NO = 999
REV_AT_EPOCH   = 92878
BSTAR          = .27107374E-3
MEAN_MOTION_DOT = .1105E-3
MEAN_MOTION_DDOT = 0

CCSDS_OMM_VERS = 2.0
CREATION_DATE  = 
ORIGINATOR     = 

OBJECT_NAME    = CZ-2C R/B
OBJECT_ID      = 2011-030B
CENTER_NAME    = EARTH
REF_FRAME      = TEME
TIME_SYSTEM    = UTC
MEAN_ELEMENT_THEORY = SGP/SGP4

EPOCH          = 2025-11-19T11:52:02.450784
MEAN_MOTION    = 14.80785595
ECCENTRICITY   = .00528392
INCLINATION    = 97.8373
RA_OF_ASC_NODE = 278.1223
ARG_OF_PERICENTER = 350.7693
MEAN_ANOMALY   = 122.7690

EPHEMERIS_TYPE = 0
CLASSIFICATION_TYPE = U
NORAD_CAT_ID   = 37731
ELEMENT_SET_NO = 999
REV_AT_EPOCH   = 77378
BSTAR          = .26901032E-3
MEAN_MOTION_DOT = .2069E-4
MEAN_MOTION_DDOT = 0

